STARLINK-2022           
1 47643U 21012Z   24180.07228173  .00000572  00000+0  57329-4 0  9998
2 47643  53.0547 313.1864 0002111  59.7088 300.4110 15.06402143186356
